NORAD_CAT_ID,OBJECT_NAME,OBJECT_TYPE,EPOCH,MEAN_MOTION,ECCENTRICITY,INCLINATION,RA_OF_ASC_NODE,ARG_OF_PERICENTER,MEAN_ANOMALY,BSTAR,MEAN_MOTION_DOT,MEAN_MOTION_DDOT,TLE_LINE0,TLE_LINE1,TLE_LINE2,SEMIMAJOR_AXIS,PERIOD,APOGEE,PERIGEE,DECAYED
53595.0,STARLINK-4684,PAYLOAD,2022-10-03 22:00:00,15.33768405,0.0001193,53.2172,108.9446,101.6731,329.1749,-0.037835,-0.01142639,0.0,0 STARLINK-4684,1 53595U 22104H   22276.91667824 -.01142639  00000-0 -37835-1 0  9993,2 53595  53.2172 108.9446 0001193 101.6731 329.1749 15.33768405  6197,6842.718000000003,93.886,465.399,463.767,0.0
53595.0,STARLINK-4684,PAYLOAD,2022-10-04 14:00:01,15.32159289,0.0001295,53.2168,105.837,93.3538,58.6137,-0.039654,-0.01138407,0.0,0 STARLINK-4684,1 53595U 22104H   22277.58334491 -.01138407  00000-0 -39654-1 0  9997,2 53595  53.2168 105.8370 0001295  93.3538  58.6137 15.32159289  1305,6847.5080000000025,93.985,470.26,468.486,0.0
53595.0,STARLINK-4684,PAYLOAD,2022-10-04 22:00:00,15.31343376,0.0001374,53.2175,104.289,87.2348,103.849,-0.039994,-0.01120725,0.0,0 STARLINK-4684,1 53595U 22104H   22277.91667824 -.01120725  00000-0 -39994-1 0  9994,2 53595  53.2175 104.2890 0001374  87.2348 103.8490 15.31343376  1308,6849.94,94.035,472.746,470.864,0.0
53595.0,STARLINK-4684,PAYLOAD,2022-10-05 14:00:01,15.29766576,0.0001255,53.2169,101.1931,95.6386,170.8235,-0.043666,-0.0116087,0.0,0 STARLINK-4684,1 53595U 22104H   22278.58335648 -.01160870  00000-0 -43666-1 0  9990,2 53595  53.2169 101.1931 0001255  95.6386 170.8235 15.29766576  1305,6854.647,94.132,477.372,475.651,0.0
53595.0,STARLINK-4684,PAYLOAD,2022-10-05 22:00:00,15.2893492,0.0001233,53.2175,99.6507,90.4819,212.145,-0.043104,-0.01120532,0.0,0 STARLINK-4684,1 53595U 22104H   22278.91667824 -.01120532  00000-0 -43104-1 0  9999,2 53595  53.2175  99.6507 0001233  90.4819 212.1450 15.28934920  1300,6857.132,94.183,479.842,478.151,0.0
53595.0,STARLINK-4684,PAYLOAD,2022-10-06 14:00:01,15.27346668,0.0001192,53.2169,96.5662,92.5352,279.6229,-0.046354,-0.01145146,0.0,0 STARLINK-4684,1 53595U 22104H   22279.58334491 -.01145146  00000-0 -46354-1 0  9992,2 53595  53.2169  96.5662 0001192  92.5352 279.6229 15.27346668  1307,6861.885,94.281,484.568,482.932,0.0
53595.0,STARLINK-4684,PAYLOAD,2022-10-06 22:42:55,15.26449327,0.0001378,53.2172,94.892,98.9595,110.3354,-0.046112,-0.01111552,0.0,0 STARLINK-4684,1 53595U 22104H   22279.94646991 -.01111552  00000-0 -46112-1 0  9999,2 53595  53.2172  94.8920 0001378  98.9595 110.3354 15.26449327  1309,6864.574000000001,94.337,487.385,485.49300000000005,0.0
53595.0,STARLINK-4684,PAYLOAD,2022-10-07 00:00:00,15.26326855,0.0001320999999999,53.2171,94.6448,95.0007,48.6654,-0.046749,-0.01121736,0.0,0 STARLINK-4684,1 53595U 22104H   22280.00001157 -.01121736  00000-0 -46749-1 0  9998,2 53595  53.2171  94.6448 0001321  95.0007  48.6654 15.26326855  6676,6864.941,94.344,487.713,485.899,0.0
53595.0,STARLINK-4684,PAYLOAD,2022-10-07 14:00:01,15.24921459,0.0001286,53.2175,91.9563,97.6208,11.6162,-0.048806,-0.01122201,0.0,0 STARLINK-4684,1 53595U 22104H   22280.58334491 -.01122201  00000-0 -48806-1 0  9995,2 53595  53.2175  91.9563 0001286  97.6208  11.6162 15.24921459  1307,6869.158,94.431,491.907,490.14,0.0
53595.0,STARLINK-4684,PAYLOAD,2022-10-07 22:00:00,15.24128538,0.0001330999999999,53.217,90.425,100.7354,38.9231,-0.050605,-0.01150064,0.0,0 STARLINK-4684,1 53595U 22104H   22280.91667824 -.01150064  00000-0 -50605-1 0  9999,2 53595  53.2170  90.4250 0001331 100.7354  38.9231 15.24128538  6815,6871.541,94.48,494.32,492.491,0.0
53595.0,STARLINK-4684,PAYLOAD,2022-10-08 14:00:01,15.22517431,0.000135,53.2171,87.3632,88.5485,109.0743,-0.0527659999999999,-0.01143382,0.0,0 STARLINK-4684,1 53595U 22104H   22281.58334491 -.01143382  00000-0 -52766-1 0  9999,2 53595  53.2171  87.3632 0001350  88.5485 109.0743 15.22517431  1303,6876.387,94.58,499.181,497.324,0.0
53595.0,STARLINK-4684,PAYLOAD,2022-10-08 22:00:00,15.21711807,0.0001388,53.217,85.8374,103.0401,122.1155,-0.053762,-0.01137912,0.0,0 STARLINK-4684,1 53595U 22104H   22281.91667824 -.01137912  00000-0 -53762-1 0  9994,2 53595  53.2170  85.8374 0001388 103.0401 122.1155 15.21711807  6962,6878.814,94.63,501.634,499.724,0.0
53595.0,STARLINK-4684,PAYLOAD,2022-10-09 14:00:01,15.20112342,0.0001289,53.217,82.7869,93.4249,183.9003,-0.056869,-0.01147478,0.0,0 STARLINK-4684,1 53595U 22104H   22282.58334491 -.01147478  00000-0 -56869-1 0  9998,2 53595  53.2170  82.7869 0001289  93.4249 183.9003 15.20112342  1307,6883.638000000001,94.73,506.391,504.616,0.0
53595.0,STARLINK-4684,PAYLOAD,2022-10-09 22:00:00,15.1929784,0.0001231999999999,53.2172,81.2669,88.8653,213.1026,-0.057279,-0.01129957,0.0,0 STARLINK-4684,1 53595U 22104H   22282.91667824 -.01129957  00000-0 -57279-1 0  9992,2 53595  53.2172  81.2669 0001232  88.8653 213.1026 15.19297840  7117,6886.098000000001,94.781,508.812,507.115,0.0
53595.0,STARLINK-4684,PAYLOAD,2022-10-10 14:00:01,15.17694081,0.0001193,53.2175,78.2281,91.4404,256.9102,-0.060228,-0.0113374,0.0,0 STARLINK-4684,1 53595U 22104H   22283.58334491 -.01133740  00000-0 -60228-1 0  9990,2 53595  53.2175  78.2281 0001193  91.4404 256.9102 15.17694081  1307,6890.949000000001,94.881,513.636,511.992,0.0
53595.0,STARLINK-4684,PAYLOAD,2022-10-10 22:00:01,15.16889858,0.0001149999999999,53.2172,76.7131,84.6401,285.5175,-0.0614759999999999,-0.01130917,0.0,0 STARLINK-4684,1 53595U 22104H   22283.91668981 -.01130917  00000-0 -61476-1 0  9990,2 53595  53.2172  76.7131 0001150  84.6401 285.5175 15.16889858  1300,6893.384,94.931,516.0419999999998,514.456,0.0
53595.0,STARLINK-4684,PAYLOAD,2022-10-11 14:00:01,15.15285422,0.0001216,53.2175,73.6859,84.1885,326.4999,-0.064548,-0.01133847,0.0,0 STARLINK-4684,1 53595U 22104H   22284.58334491 -.01133847  00000-0 -64548-1 0  9998,2 53595  53.2175  73.6859 0001216  84.1885 326.4999 15.15285422  1305,6898.249,95.032,520.953,519.275,0.0
53595.0,STARLINK-4684,PAYLOAD,2022-10-11 22:00:00,15.14495088,0.0001236,53.2171,72.1761,86.6211,342.9108,-0.067112,-0.01151209,0.0,0 STARLINK-4684,1 53595U 22104H   22284.91667824 -.01151209  00000-0 -67112-1 0  9996,2 53595  53.2171  72.1761 0001236  86.6211 342.9108 15.14495088  1304,6900.649,95.081,523.367,521.661,0.0
53595.0,STARLINK-4684,PAYLOAD,2022-10-12 14:00:01,15.12875826,0.0001324,53.2175,69.1604,83.2125,21.1308,-0.069017,-0.01132466,0.0,0 STARLINK-4684,1 53595U 22104H   22285.58334491 -.01132466  00000-0 -69017-1 0  9991,2 53595  53.2175  69.1604 0001324  83.2125  21.1308 15.12875826  1303,6905.571999999999,95.183,528.351,526.523,0.0
53595.0,STARLINK-4684,PAYLOAD,2022-10-12 22:00:00,15.12071968,0.0001329,53.2172,67.6561,80.4809,39.8173,-0.070419,-0.01129888,0.0,0 STARLINK-4684,1 53595U 22104H   22285.91667824 -.01129888  00000-0 -70419-1 0  9999,2 53595  53.2172  67.6561 0001329  80.4809  39.8173 15.12071968  1309,6908.019,95.234,530.802,528.966,0.0
53595.0,STARLINK-4684,PAYLOAD,2022-10-13 14:00:01,15.10466474,0.0001411,53.2175,64.6516,79.735,69.5797,-0.073768,-0.01131635,0.0,0 STARLINK-4684,1 53595U 22104H   22286.58334491 -.01131635  00000-0 -73768-1 0  9997,2 53595  53.2175  64.6516 0001411  79.7350  69.5797 15.10466474  1303,6912.913000000001,95.335,535.754,533.803,0.0
53595.0,STARLINK-4684,PAYLOAD,2022-10-13 20:00:01,15.09777284,0.0001165,53.2174,63.5277,88.0437,341.2371,-0.0601279999999999,-0.00909037,0.0,0 STARLINK-4684,1 53595U 22104H   22286.83335648 -.00909037  00000-0 -60128-1 0  9994,2 53595  53.2174  63.5277 0001165  88.0437 341.2371 15.09777284  7709,6915.017,95.378,537.688,536.076,0.0
53595.0,STARLINK-4684,PAYLOAD,2022-10-13 22:00:00,15.09539044,0.0001227,53.2172,63.1527,88.9411,73.4544,-0.04923,-0.00741726,0.0,0 STARLINK-4684,1 53595U 22104H   22286.91667824 -.00741726  00000-0 -49230-1 0  9997,2 53595  53.2172  63.1527 0001227  88.9411  73.4544 15.09539044  1307,6915.745,95.393,538.4580000000002,536.761,0.0
53595.0,STARLINK-4684,PAYLOAD,2022-10-14 06:00:00,15.0888255,0.0001174,53.2173,61.6537,94.9222,79.605,-0.004802,-0.00075993,0.0,0 STARLINK-4684,1 53595U 22104H   22287.25001157 -.00075993  00000-0 -48020-2 0  9999,2 53595  53.2173  61.6537 0001174  94.9222  79.6050 15.08882550  7779,6917.75,95.435,540.427,538.803,0.0
53595.0,STARLINK-4684,PAYLOAD,2022-10-14 14:00:01,15.088356400000002,0.0001349,53.2175,60.1587,89.0999,97.04,0.00010912,1.449e-05,0.0,0 STARLINK-4684,1 53595U 22104H   22287.58334491  .00001449  00000-0  10912-3 0  9998,2 53595  53.2175  60.1587 0001349  89.0999  97.0400 15.08835640  1304,6917.894,95.438,540.692,538.825,0.0
53595.0,STARLINK-4684,PAYLOAD,2022-10-14 20:00:01,15.08834271,0.0001336,53.2174,59.037,86.9696,17.8644,0.0003156,4.738e-05,0.0,0 STARLINK-4684,1 53595U 22104H   22287.83334491  .00004738  00000-0  31560-3 0  9992,2 53595  53.2174  59.0370 0001336  86.9696  17.8644 15.08834271  7851,6917.898,95.438,540.687,538.839,0.0
53595.0,STARLINK-4684,PAYLOAD,2022-10-15 14:00:01,15.08865417,0.0001429,53.2161,55.6693,86.9766,133.8216,1.8722e-05,1e-07,0.0,0 STARLINK-4684,1 53595U 22104H   22288.58334491  .00000010  00000-0  18722-4 0  9990,2 53595  53.2161  55.6693 0001429  86.9766 133.8216 15.08865417  7971,6917.803000000001,95.436,540.656,538.679,0.0
53595.0,STARLINK-4684,PAYLOAD,2022-10-15 22:00:01,15.08929491,0.0001453999999999,53.2165,54.1736,81.2428,151.266,-0.0071215,-0.00112141,0.0,0 STARLINK-4684,1 53595U 22104H   22288.91668981 -.00112141  00000-0 -71215-2 0  9996,2 53595  53.2165  54.1736 0001454  81.2428 151.2660 15.08929491  8025,6917.607,95.432,540.4780000000002,538.466,0.0
53595.0,STARLINK-4684,PAYLOAD,2022-10-16 14:00:01,15.08846453,0.0001413,53.216,51.1801,83.0481,172.6003,0.00012331,1.675e-05,0.0,0 STARLINK-4684,1 53595U 22104H   22289.58334491  .00001675  00000-0  12331-3 0  9998,2 53595  53.2160  51.1801 0001413  83.0481 172.6003 15.08846453  8129,6917.861,95.437,540.703,538.748,0.0
